NORAD_CAT_ID,OBJECT_NAME,OBJECT_TYPE,EPOCH,MEAN_MOTION,ECCENTRICITY,INCLINATION,RA_OF_ASC_NODE,ARG_OF_PERICENTER,MEAN_ANOMALY,BSTAR,MEAN_MOTION_DOT,MEAN_MOTION_DDOT,TLE_LINE0,TLE_LINE1,TLE_LINE2,SEMIMAJOR_AXIS,PERIOD,APOGEE,PERIGEE,DECAYED
53894.0,STARLINK-5043,PAYLOAD,2024-03-18 01:36:53,15.08844802,0.0001573,53.219,323.6374,78.0169,282.1,0.00020935,3.046e-05,0.0,0 STARLINK-5043,1 53894U 22119J   24078.06728902  .00003046  00000-0  20935-3 0  9994,2 53894  53.2190 323.6374 0001573  78.0169 282.1000 15.08844802 82740,6917.866,95.437,540.819,538.643,0.0
53894.0,STARLINK-5043,PAYLOAD,2024-03-18 22:16:54,15.08848283,0.0001288,53.2179,319.7748,107.4561,252.6572,0.00010562,1.394e-05,0.0,0 STARLINK-5043,1 53894U 22119J   24078.92840815  .00001394  00000-0  10562-3 0  9996,2 53894  53.2179 319.7748 0001288 107.4561 252.6572 15.08848283 82871,6917.855,95.437,540.611,538.829,0.0
53894.0,STARLINK-5043,PAYLOAD,2024-03-20 01:18:26,15.08860928,0.0001288,53.2176,314.7209,114.1145,245.9982,8.3361e-05,1.04e-05,0.0,0 STARLINK-5043,1 53894U 22119J   24080.05447641  .00001040  00000-0  83361-4 0  9999,2 53894  53.2176 314.7209 0001288 114.1145 245.9982 15.08860928 82621,6917.816,95.436,540.572,538.79,0.0
53894.0,STARLINK-5043,PAYLOAD,2024-03-20 20:23:05,15.088399,0.0002112,53.2181,311.1451,133.5075,226.6093,-7.6322e-05,-1.503e-05,0.0,0 STARLINK-5043,1 53894U 22119J   24080.84936775 -.00001503  00000-0 -76322-4 0  9992,2 53894  53.2181 311.1451 0002112 133.5075 226.6093 15.08839900 82749,6917.881,95.438,541.207,538.285,0.0
53894.0,STARLINK-5043,PAYLOAD,2024-03-20 21:58:28,15.0883721,0.0001405,53.217,310.8454,123.0517,237.061,-5.7751e-05,-1.207e-05,0.0,0 STARLINK-5043,1 53894U 22119J   24080.91561167 -.00001207  00000-0 -57751-4 0  9995,2 53894  53.2170 310.8454 0001405 123.0517 237.0610 15.08837210 83176,6917.889,95.438,540.726,538.782,0.0
53894.0,STARLINK-5043,PAYLOAD,2024-03-21 01:09:15,15.088376,0.0001179,53.218,310.2616,97.824,262.2886,2.1058e-05,4.7e-07,0.0,0 STARLINK-5043,1 53894U 22119J   24081.04809508  .00000047  00000-0  21058-4 0  9994,2 53894  53.2180 310.2616 0001179  97.8240 262.2886 15.08837600 83190,6917.888,95.438,540.568,538.937,0.0
53894.0,STARLINK-5043,PAYLOAD,2024-03-21 21:49:15,15.08847799,0.0001347,53.2171,306.3947,111.9975,248.1161,0.00016723,2.375e-05,0.0,0 STARLINK-5043,1 53894U 22119J   24081.90921007  .00002375  00000-0  16723-3 0  9996,2 53894  53.2171 306.3947 0001347 111.9975 248.1161 15.08847799 83327,6917.857,95.437,540.653,538.79,0.0
53894.0,STARLINK-5043,PAYLOAD,2024-03-22 01:00:01,15.08849744,0.0001426,53.2173,305.799,115.2349,244.8791,0.00021176,3.085e-05,0.0,0 STARLINK-5043,1 53894U 22119J   24082.04168920  .00003085  00000-0  21176-3 0  9996,2 53894  53.2173 305.7990 0001426 115.2349 244.8791 15.08849744 82929,6917.851,95.437,540.702,538.729,0.0
53894.0,STARLINK-5043,PAYLOAD,2024-03-22 20:04:40,15.0884045,0.0001353,53.2168,302.23,101.6792,258.4352,0.00019881,2.878e-05,0.0,0 STARLINK-5043,1 53894U 22119J   24082.83657494  .00002878  00000-0  19881-3 0  9991,2 53894  53.2168 302.2300 0001353 101.6792 258.4352 15.08840450 83043,6917.879,95.438,540.68,538.808,0.0
53894.0,STARLINK-5043,PAYLOAD,2024-03-22 21:40:03,15.0884254,0.0001325,53.2166,301.9308,97.8624,262.2518,0.00019545,2.824e-05,0.0,0 STARLINK-5043,1 53894U 22119J   24082.90281288  .00002824  00000-0  19545-3 0  9991,2 53894  53.2166 301.9308 0001325  97.8624 262.2518 15.08842540 83470,6917.873,95.437,540.654,538.821,0.0
53894.0,STARLINK-5043,PAYLOAD,2024-03-23 21:30:50,15.0883988,0.000156,53.216,297.4834,119.544,240.5708,1.5382e-05,-4.3e-07,0.0,0 STARLINK-5043,1 53894U 22119J   24083.89641737 -.00000043  00000-0  15382-4 0  9997,2 53894  53.2160 297.4834 0001560 119.5440 240.5708 15.08839880 83200,6917.881,95.438,540.825,538.667,0.0
53894.0,STARLINK-5043,PAYLOAD,2024-03-24 07:03:08,15.08848917,0.0001089,53.2151,295.6952,102.5997,257.5117,0.00021837,3.19e-05,0.0,0 STARLINK-5043,1 53894U 22119J   24084.29385307  .00003190  00000-0  21837-3 0  9996,2 53894  53.2151 295.6952 0001089 102.5997 257.5117 15.08848917 83681,6917.853,95.437,540.471,538.965,0.0
53894.0,STARLINK-5043,PAYLOAD,2024-03-24 21:21:37,15.08851582,0.0001424,53.2168,293.015,86.3794,273.7361,0.00036083,5.461e-05,0.0,0 STARLINK-5043,1 53894U 22119J   24084.89001465  .00005461  00000-0  36083-3 0  9994,2 53894  53.2168 293.0150 0001424  86.3794 273.7361 15.08851582 83771,6917.845,95.437,540.695,538.725,0.0
53894.0,STARLINK-5043,PAYLOAD,2024-03-24 22:56:59,15.08861375,0.0001276,53.2164,292.7162,104.4151,255.6983,0.0005175,7.962e-05,0.0,0 STARLINK-5043,1 53894U 22119J   24084.95624791  .00007962  00000-0  51750-3 0  9990,2 53894  53.2164 292.7162 0001276 104.4151 255.6983 15.08861375 83365,6917.815,95.436,540.563,538.797,0.0
53894.0,STARLINK-5043,PAYLOAD,2024-03-25 06:53:55,15.08843531,8.63e-05,53.2171,291.2265,108.43,251.6786,0.0001459,2.035e-05,0.0,0 STARLINK-5043,1 53894U 22119J   24085.28745149  .00002035  00000-0  14590-3 0  9995,2 53894  53.2171 291.2265 0000863 108.4300 251.6786 15.08843531 83419,6917.87,95.437,540.332,539.138,0.0
53894.0,STARLINK-5043,PAYLOAD,2024-03-25 21:12:24,15.08845655,0.0001209,53.2155,288.5556,86.0945,274.0185,0.00012368,1.681e-05,0.0,0 STARLINK-5043,1 53894U 22119J   24085.88361427  .00001681  00000-0  12368-3 0  9991,2 53894  53.2155 288.5556 0001209  86.0945 274.0185 15.08845655 83921,6917.863,95.437,540.564,538.892,0.0
53894.0,STARLINK-5043,PAYLOAD,2024-03-26 13:06:16,15.08819928,0.0001335,53.2183,285.5796,100.6579,259.4564,-0.00019469,-3.383e-05,0.0,0 STARLINK-5043,1 53894U 22119J   24086.54602968 -.00003383  00000-0 -19469-3 0  9995,2 53894  53.2183 285.5796 0001335 100.6579 259.4564 15.08819928 83608,6917.942,95.439,540.73,538.883,0.0
53894.0,STARLINK-5043,PAYLOAD,2024-03-26 19:27:49,15.08828416,0.0001213,53.2162,284.3923,98.3975,261.7155,-2.2419e-05,-6.44e-06,0.0,0 STARLINK-5043,1 53894U 22119J   24086.81098702 -.00000644  00000-0 -22419-4 0  9997,2 53894  53.2162 284.3923 0001213  98.3975 261.7155 15.08828416 83640,6917.916,95.438,540.62,538.942,0.0
53894.0,STARLINK-5043,PAYLOAD,2024-03-27 12:57:03,15.08840824,0.0001381,53.2161,281.12,101.4253,258.6894,0.00015482,2.177e-05,0.0,0 STARLINK-5043,1 53894U 22119J   24087.53962357  .00002177  00000-0  15482-3 0  9995,2 53894  53.2161 281.1200 0001381 101.4253 258.6894 15.08840824 83757,6917.878,95.438,540.698,538.788,0.0
53894.0,STARLINK-5043,PAYLOAD,2024-03-27 19:18:35,15.0884686,0.0001296,53.2161,279.9321,94.6801,265.4339,0.00028537,4.258e-05,0.0,0 STARLINK-5043,1 53894U 22119J   24087.80458158  .00004258  00000-0  28537-3 0  9991,2 53894  53.2161 279.9321 0001296  94.6801 265.4339 15.08846860 84211,6917.859,95.437,540.621,538.828,0.0
53894.0,STARLINK-5043,PAYLOAD,2024-03-27 22:29:21,15.08853807,0.0001374,53.2161,279.3371,95.5824,264.5325,0.00031585,4.744e-05,0.0,0 STARLINK-5043,1 53894U 22119J   24087.93705785  .00004744  00000-0  31585-3 0  9993,2 53894  53.2161 279.3371 0001374  95.5824 264.5325 15.08853807 83811,6917.838,95.437,540.654,538.753,0.0
53894.0,STARLINK-5043,PAYLOAD,2024-03-28 12:47:50,15.08840354,0.0001755,53.2152,276.6562,108.277,251.8413,0.00028428,4.239e-05,0.0,0 STARLINK-5043,1 53894U 22119J   24088.53322783  .00004239  00000-0  28428-3 0  9994,2 53894  53.2152 276.6562 0001755 108.2770 251.8413 15.08840354 83908,6917.879,95.438,540.958,538.53,0.0
53894.0,STARLINK-5043,PAYLOAD,2024-03-28 19:09:23,15.08844066,0.0001565,53.2156,275.4713,96.2394,263.8777,0.00024282,3.579e-05,0.0,0 STARLINK-5043,1 53894U 22119J   24088.79818545  .00003579  00000-0  24282-3 0  9998,2 53894  53.2156 275.4713 0001565  96.2394 263.8777 15.08844066 84365,6917.868,95.437,540.816,538.65,0.0
53894.0,STARLINK-5043,PAYLOAD,2024-03-29 12:38:37,15.08840902,0.0001288,53.2159,272.1997,96.1472,263.9666,6.4379e-05,7.37e-06,0.0,0 STARLINK-5043,1 53894U 22119J   24089.52682733  .00000737  00000-0  64379-4 0  9993,2 53894  53.2159 272.1997 0001288  96.1472 263.9666 15.08840902 84479,6917.878,95.437,540.634,538.852,0.0
53894.0,STARLINK-5043,PAYLOAD,2024-03-29 19:00:10,15.08841808,0.0001158,53.2189,271.0139,81.3103,278.8021,0.00013991,1.94e-05,0.0,0 STARLINK-5043,1 53894U 22119J   24089.79178580  .00001940  00000-0  13991-3 0  9992,2 53894  53.2189 271.0139 0001158  81.3103 278.8021 15.08841808 84095,6917.875,95.437,540.541,538.939,0.0
53894.0,STARLINK-5043,PAYLOAD,2024-03-30 10:54:01,15.08840919,0.000143,53.2152,268.0388,89.0401,271.0755,0.00017935,2.568e-05,0.0,0 STARLINK-5043,1 53894U 22119J   24090.45418917  .00002568  00000-0  17935-3 0  9997,2 53894  53.2152 268.0388 0001430  89.0401 271.0755 15.08840919 84615,6917.878,95.437,540.732,538.753,0.0
53894.0,STARLINK-5043,PAYLOAD,2024-03-30 18:50:57,15.08844803,0.0001391,53.2151,266.5519,87.2945,272.8206,7.8167e-05,9.56e-06,0.0,0 STARLINK-5043,1 53894U 22119J   24090.78538629  .00000956  00000-0  78167-4 0  9990,2 53894  53.2151 266.5519 0001391  87.2945 272.8206 15.08844803 84663,6917.866,95.437,540.693,538.768,0.0
53894.0,STARLINK-5043,PAYLOAD,2024-03-31 04:23:16,15.08849943,0.0001431,53.2167,264.7682,87.2888,272.8267,0.00031598,4.746e-05,0.0,0 STARLINK-5043,1 53894U 22119J   24091.18282554  .00004746  00000-0  31598-3 0  9995,2 53894  53.2167 264.7682 0001431  87.2888 272.8267 15.08849943 84300,6917.85,95.437,540.705,538.725,0.0
53894.0,STARLINK-5043,PAYLOAD,2024-03-31 10:44:48,15.08848413,0.0001532,53.217,263.5788,87.8919,272.2249,0.00023789,3.501e-05,0.0,0 STARLINK-5043,1 53894U 22119J   24091.44778543  .00003501  00000-0  23789-3 0  9993,2 53894  53.2170 263.5788 0001532  87.8919 272.2249 15.08848413 84766,6917.855,95.437,540.779,538.66,0.0
53894.0,STARLINK-5043,PAYLOAD,2024-03-31 20:17:07,15.08842548,0.0001487,53.2169,261.7947,86.4684,273.6478,9.1651e-05,1.171e-05,0.0,0 STARLINK-5043,1 53894U 22119J   24091.84522633  .00001171  00000-0  91651-4 0  9999,2 53894  53.2169 261.7947 0001487  86.4684 273.6478 15.08842548 84407,6917.873,95.437,540.766,538.709,0.0
